[{"OBJECT_NAME":"YAOGAN-39 01B","OBJECT_ID":"2023-130B","EPOCH":"2026-03-09T22:52:09.575040","MEAN_MOTION":15.17346461,"ECCENTRICITY":0.00021598,"INCLINATION":34.9951,"RA_OF_ASC_NODE":50.5935,"ARG_OF_PERICENTER":223.3635,"MEAN_ANOMALY":136.6908,"EPHEMERIS_TYPE":0,"CLASSIFICATION_TYPE":"U","NORAD_CAT_ID":57728,"ELEMENT_SET_NO":999,"REV_AT_EPOCH":14040,"BSTAR":0.00040482695,"MEAN_MOTION_DOT":8.241e-5,"MEAN_MOTION_DDOT":0},{"OBJECT_NAME":"OBJECT E","OBJECT_ID":"2024-173E","EPOCH":"2026-03-06T17:42:26.111808","MEAN_MOTION":15.19185166,"ECCENTRICITY":0.00017005,"INCLINATION":97.4124,"RA_OF_ASC_NODE":139.822,"ARG_OF_PERICENTER":89.2671,"MEAN_ANOMALY":270.8758,"EPHEMERIS_TYPE":0,"CLASSIFICATION_TYPE":"U","NORAD_CAT_ID":61231,"ELEMENT_SET_NO":999,"REV_AT_EPOCH":8020,"BSTAR":0.00013859811,"MEAN_MOTION_DOT":2.848e-5,"MEAN_MOTION_DDOT":0}]
